0 CZ-4B DEB
1 37574U 08026F   13283.08874133  .00000427  00000-0  40491-3 0  2327
2 37574 098.8654 219.5549 0257211 025.0216 336.3148 13.72160305252631
0 CZ-4B DEB
1 37574U 08026F   13285.78659707  .00000436  00000-0  41266-3 0  2336
2 37574 098.8660 222.0532 0257097 017.8927 343.1072 13.72162941253001
0 CZ-4B DEB
1 37574U 08026F   13288.04695624  .00000661  00000-0  60772-3 0  2340
2 37574 098.8666 224.1464 0256995 011.9194 348.7885 13.72166280253318
0 CZ-4B DEB
1 37574U 08026F   13290.08856512  .00000558  00000-0  51914-3 0  2356
2 37574 098.8669 226.0372 0256889 006.5219 353.9171 13.72168964253597
0 CZ-4B DEB
1 37574U 08026F   13293.07805523  .00000662  00000-0  60928-3 0  2366
2 37574 098.8671 228.8064 0256744 358.6156 001.4256 13.72172825254006
0 CZ-4B DEB
1 37574U 08026F   13295.63005195  .00000697  00000-0  64062-3 0  2379
2 37574 098.8672 231.1705 0256616 351.8628 007.8397 13.72176822254358
